[Satellite]
VERSION=1.1
NAME=IRIDIUM 49 [+]
NICKNAME=IRIDIUM 49 [+]
TLE1=1 25108U 97082E   15055.54785017  .00000049  00000-0  10535-4 0  9996
TLE2=2 25108  86.3923 248.0363 0001965 110.2188 332.7127 14.34215659899457
